OBJECT_NAME,OBJECT_ID,EPOCH,MEAN_MOTION,ECCENTRICITY,INCLINATION,RA_OF_ASC_NODE,ARG_OF_PERICENTER,MEAN_ANOMALY,EPHEMERIS_TYPE,CLASSIFICATION_TYPE,NORAD_CAT_ID,ELEMENT_SET_NO,REV_AT_EPOCH,BSTAR,MEAN_MOTION_DOT,MEAN_MOTION_DDOT
IRIDIUM 156,2018-061H,2026-07-06T15:39:46.291104,14.34218513,.0002032,86.3943,48.5877,90.1244,270.0185,0,U,43576,999,41616,.60726E-4,.19E-5,0
IRIDIUM 164,2018-061J,2026-07-06T16:52:50.379168,14.34218135,.0002288,86.3944,48.6072,89.5855,270.5603,0,U,43577,999,41621,.66864E-5,.39E-6,0
IRIDIUM 159,2018-061K,2026-07-06T16:07:10.199712,14.34219550,.0002209,86.3942,48.5570,84.2653,275.8794,0,U,43578,999,41617,.65898E-4,.204E-5,0
IRIDIUM 180,2019-002A,2026-07-06T12:45:30.882816,14.34217376,.000224,86.3982,345.5097,91.0192,269.1260,0,U,43922,999,39176,.59565E-4,.187E-5,0
IRIDIUM 176,2019-002B,2026-07-06T20:52:21.785376,14.72241281,.0002353,86.6103,345.3092,88.6643,271.4844,0,U,43923,999,40214,.10867E-3,.71E-5,0
IRIDIUM 168,2019-002C,2026-07-06T20:58:42.645216,14.34217576,.0002229,86.3985,345.4445,90.7562,269.3890,0,U,43924,999,39179,.61512E-5,.37E-6,0
IRIDIUM 173,2019-002D,2026-07-06T20:40:26.840064,14.34217707,.0002153,86.3983,345.3378,90.6079,269.5364,0,U,43925,999,39177,.41761E-4,.137E-5,0
IRIDIUM 169,2019-002E,2026-07-06T14:07:46.496640,14.38612887,.0001689,86.4219,17.0797,94.6430,265.4961,0,U,43926,999,39301,.78457E-4,.26E-5,0
IRIDIUM 172,2019-002F,2026-07-06T10:28:30.837792,14.34217805,.00022089,86.3985,345.5238,89.3183,270.8266,0,U,43927,999,39172,.81624981E-4,.248E-5,0
IRIDIUM 175,2019-002G,2026-07-06T19:44:30.290784,14.43624051,.0004758,86.4516,282.3136,132.3461,227.8144,0,U,43928,999,40181,.81705E-4,.297E-5,0
IRIDIUM 171,2019-002H,2026-07-06T11:41:34.815264,14.34218495,.0002186,86.3992,345.8107,94.6756,265.4689,0,U,43929,999,39172,.25298E-4,.91E-6,0
IRIDIUM 170,2019-002J,2026-07-06T11:14:00.447936,14.72241471,.000237,86.6102,345.4794,84.9122,275.2365,0,U,43930,999,40209,.1196E-3,.779E-5,0
IRIDIUM 167,2019-002K,2026-07-06T11:32:26.807712,14.34218223,.0002139,86.3984,345.5275,98.9932,261.1506,0,U,43931,999,39172,.14477E-4,.6E-6,0
IRIDIUM 181,2023-068S,2026-07-06T17:26:24.509184,14.43309219,.0002481,86.4482,48.6205,85.6140,274.5344,0,U,56726,999,16525,.70767E-4,.258E-5,0
IRIDIUM 177,2023-068T,2026-07-06T09:18:09.430560,14.80019562,.00021315,86.1979,319.6740,91.1693,268.9772,0,U,56727,999,16920,.15361384E-3,.1188E-4,0
IRIDIUM 174,2023-068U,2026-07-06T17:27:39.385152,14.72250239,.0002128,86.6111,345.5202,81.6004,278.5455,0,U,56728,999,16889,.12507E-3,.813E-5,0
IRIDIUM 178,2023-068V,2026-07-06T13:54:20.966112,14.80023012,.000232,86.6531,17.2544,86.8348,273.3139,0,U,56729,999,16923,.10813E-3,.844E-5,0
IRIDIUM 179,2023-068W,2026-07-06T13:46:41.645568,14.80027353,.0002267,86.6766,26.2940,90.0454,270.1028,0,U,56730,999,16923,.12174E-3,.947E-5,0
